[{"OBJECT_NAME":"YAOGAN-40 02A","OBJECT_ID":"2025-096A","EPOCH":"2026-03-09T23:00:41.577120","MEAN_MOTION":14.1242685,"ECCENTRICITY":0.00022356,"INCLINATION":85.9915,"RA_OF_ASC_NODE":232.4162,"ARG_OF_PERICENTER":82.7256,"MEAN_ANOMALY":277.4181,"EPHEMERIS_TYPE":0,"CLASSIFICATION_TYPE":"U","NORAD_CAT_ID":63918,"ELEMENT_SET_NO":999,"REV_AT_EPOCH":4256,"BSTAR":9.2662913e-5,"MEAN_MOTION_DOT":1.9e-6,"MEAN_MOTION_DDOT":0},{"OBJECT_NAME":"CZ-6A R\/B","OBJECT_ID":"2025-220F","EPOCH":"2026-03-09T22:12:31.377024","MEAN_MOTION":13.94195316,"ECCENTRICITY":0.01031508,"INCLINATION":86.5021,"RA_OF_ASC_NODE":71.4262,"ARG_OF_PERICENTER":335.7618,"MEAN_ANOMALY":23.872,"EPHEMERIS_TYPE":0,"CLASSIFICATION_TYPE":"U","NORAD_CAT_ID":65822,"ELEMENT_SET_NO":999,"REV_AT_EPOCH":2277,"BSTAR":5.9182809e-5,"MEAN_MOTION_DOT":9.9e-7,"MEAN_MOTION_DDOT":0}]
